[{"OBJECT_NAME":"STARLINK-2095","OBJECT_ID":"2021-012BM","EPOCH":"2026-03-10T00:00:02.999808","MEAN_MOTION":15.74200805,"ECCENTRICITY":0.00059989,"INCLINATION":53.0265,"RA_OF_ASC_NODE":345.7098,"ARG_OF_PERICENTER":141.0946,"MEAN_ANOMALY":123.1256,"EPHEMERIS_TYPE":0,"CLASSIFICATION_TYPE":"U","NORAD_CAT_ID":47679,"ELEMENT_SET_NO":999,"REV_AT_EPOCH":596,"BSTAR":0.0014953733,"MEAN_MOTION_DOT":0.00224612,"MEAN_MOTION_DDOT":0},{"OBJECT_NAME":"STARLINK-36559","OBJECT_ID":"2026-014Z","EPOCH":"2026-03-09T15:14:40.280352","MEAN_MOTION":15.75213732,"ECCENTRICITY":0.0001109,"INCLINATION":97.2851,"RA_OF_ASC_NODE":313.5453,"ARG_OF_PERICENTER":113.2316,"MEAN_ANOMALY":246.9066,"EPHEMERIS_TYPE":0,"CLASSIFICATION_TYPE":"U","NORAD_CAT_ID":67555,"ELEMENT_SET_NO":999,"REV_AT_EPOCH":855,"BSTAR":0.0018954,"MEAN_MOTION_DOT":0.00292797,"MEAN_MOTION_DDOT":0}]
